CCSDS_OMM_VERS = 2.0
CREATION_DATE  = 
ORIGINATOR     = 

OBJECT_NAME    = PROGRESS-MS 32
OBJECT_ID      = 2025-204A
CENTER_NAME    = EARTH
REF_FRAME      = TEME
TIME_SYSTEM    = UTC
MEAN_ELEMENT_THEORY = SGP/SGP4

EPOCH          = 2025-11-23T04:33:29.811168
MEAN_MOTION    = 15.49010020
ECCENTRICITY   = .00039038
INCLINATION    = 51.6318
RA_OF_ASC_NODE = 239.2442
ARG_OF_PERICENTER = 158.2569
MEAN_ANOMALY   = 201.8586

EPHEMERIS_TYPE = 0
CLASSIFICATION_TYPE = U
NORAD_CAT_ID   = 65586
ELEMENT_SET_NO = 999
REV_AT_EPOCH   = 27
BSTAR          = .2556993E-3
MEAN_MOTION_DOT = .13668E-3
MEAN_MOTION_DDOT = 0

CCSDS_OMM_VERS = 2.0
CREATION_DATE  = 
ORIGINATOR     = 

OBJECT_NAME    = CYGNUS NG-23
OBJECT_ID      = 2025-208A
CENTER_NAME    = EARTH
REF_FRAME      = TEME
TIME_SYSTEM    = UTC
MEAN_ELEMENT_THEORY = SGP/SGP4

EPOCH          = 2025-11-23T04:33:29.811168
MEAN_MOTION    = 15.49010020
ECCENTRICITY   = .00039038
INCLINATION    = 51.6318
RA_OF_ASC_NODE = 239.2442
ARG_OF_PERICENTER = 158.2569
MEAN_ANOMALY   = 201.8586

EPHEMERIS_TYPE = 0
CLASSIFICATION_TYPE = U
NORAD_CAT_ID   = 65616
ELEMENT_SET_NO = 999
REV_AT_EPOCH   = 22
BSTAR          = .2556993E-3
MEAN_MOTION_DOT = .13668E-3
MEAN_MOTION_DDOT = 0

CCSDS_OMM_VERS = 2.0
CREATION_DATE  = 
ORIGINATOR     = 

OBJECT_NAME    = DRAGONFLY
OBJECT_ID      = 1998-067XH
CENTER_NAME    = EARTH
REF_FRAME      = TEME
TIME_SYSTEM    = UTC
MEAN_ELEMENT_THEORY = SGP/SGP4

EPOCH          = 2025-11-24T03:13:35.097600
MEAN_MOTION    = 15.65678178
ECCENTRICITY   = .0006051
INCLINATION    = 51.6275
RA_OF_ASC_NODE = 230.5520
ARG_OF_PERICENTER = 172.8039
MEAN_ANOMALY   = 187.3044

EPHEMERIS_TYPE = 0
CLASSIFICATION_TYPE = U
NORAD_CAT_ID   = 65729
ELEMENT_SET_NO = 999
REV_AT_EPOCH   = 1024
BSTAR          = .12644E-2
MEAN_MOTION_DOT = .131813E-2
MEAN_MOTION_DDOT = 0

CCSDS_OMM_VERS = 2.0
CREATION_DATE  = 
ORIGINATOR     = 

OBJECT_NAME    = 1998-067XJ
OBJECT_ID      = 1998-067XJ
CENTER_NAME    = EARTH
REF_FRAME      = TEME
TIME_SYSTEM    = UTC
MEAN_ELEMENT_THEORY = SGP/SGP4

EPOCH          = 2025-11-24T02:05:36.926880
MEAN_MOTION    = 15.89933039
ECCENTRICITY   = .001247
INCLINATION    = 51.6191
RA_OF_ASC_NODE = 227.1932
ARG_OF_PERICENTER = 176.8753
MEAN_ANOMALY   = 183.2333

EPHEMERIS_TYPE = 0
CLASSIFICATION_TYPE = U
NORAD_CAT_ID   = 65730
ELEMENT_SET_NO = 999
REV_AT_EPOCH   = 1028
BSTAR          = .26824E-2
MEAN_MOTION_DOT = .821396E-2
MEAN_MOTION_DDOT = .28309E-3

CCSDS_OMM_VERS = 2.0
CREATION_DATE  = 
ORIGINATOR     = 

OBJECT_NAME    = 1998-067XK
OBJECT_ID      = 1998-067XK
CENTER_NAME    = EARTH
REF_FRAME      = TEME
TIME_SYSTEM    = UTC
MEAN_ELEMENT_THEORY = SGP/SGP4

EPOCH          = 2025-11-24T03:16:07.849344
MEAN_MOTION    = 15.61839277
ECCENTRICITY   = .000601
INCLINATION    = 51.6301
RA_OF_ASC_NODE = 231.3204
ARG_OF_PERICENTER = 147.5835
MEAN_ANOMALY   = 212.5529

EPHEMERIS_TYPE = 0
CLASSIFICATION_TYPE = U
NORAD_CAT_ID   = 65731
ELEMENT_SET_NO = 999
REV_AT_EPOCH   = 1023
BSTAR          = .96581E-3
MEAN_MOTION_DOT = .85895E-3
MEAN_MOTION_DDOT = 0

CCSDS_OMM_VERS = 2.0
CREATION_DATE  = 
ORIGINATOR     = 

OBJECT_NAME    = RSP-03
OBJECT_ID      = 1998-067XL
CENTER_NAME    = EARTH
REF_FRAME      = TEME
TIME_SYSTEM    = UTC
MEAN_ELEMENT_THEORY = SGP/SGP4

EPOCH          = 2025-11-23T23:26:19.865184
MEAN_MOTION    = 15.63631631
ECCENTRICITY   = .000694
INCLINATION    = 51.6285
RA_OF_ASC_NODE = 231.7507
ARG_OF_PERICENTER = 150.3605
MEAN_ANOMALY   = 209.7784

EPHEMERIS_TYPE = 0
CLASSIFICATION_TYPE = U
NORAD_CAT_ID   = 65732
ELEMENT_SET_NO = 999
REV_AT_EPOCH   = 1022
BSTAR          = .11334E-2
MEAN_MOTION_DOT = .108568E-2
MEAN_MOTION_DDOT = 0

CCSDS_OMM_VERS = 2.0
CREATION_DATE  = 
ORIGINATOR     = 

OBJECT_NAME    = GHS-01
OBJECT_ID      = 1998-067XM
CENTER_NAME    = EARTH
REF_FRAME      = TEME
TIME_SYSTEM    = UTC
MEAN_ELEMENT_THEORY = SGP/SGP4

EPOCH          = 2025-11-24T10:18:47.176416
MEAN_MOTION    = 15.67279698
ECCENTRICITY   = .0006598
INCLINATION    = 51.6289
RA_OF_ASC_NODE = 228.7787
ARG_OF_PERICENTER = 172.5677
MEAN_ANOMALY   = 187.5418

EPHEMERIS_TYPE = 0
CLASSIFICATION_TYPE = U
NORAD_CAT_ID   = 65733
ELEMENT_SET_NO = 999
REV_AT_EPOCH   = 1030
BSTAR          = .13558E-2
MEAN_MOTION_DOT = .15121E-2
MEAN_MOTION_DDOT = 0

CCSDS_OMM_VERS = 2.0
CREATION_DATE  = 
ORIGINATOR     = 

OBJECT_NAME    = YOTSUBA-KULOVER
OBJECT_ID      = 1998-067XN
CENTER_NAME    = EARTH
REF_FRAME      = TEME
TIME_SYSTEM    = UTC
MEAN_ELEMENT_THEORY = SGP/SGP4

EPOCH          = 2025-11-23T03:32:09.566016
MEAN_MOTION    = 15.56437686
ECCENTRICITY   = .000245
INCLINATION    = 51.6309
RA_OF_ASC_NODE = 238.2129
ARG_OF_PERICENTER = 116.5911
MEAN_ANOMALY   = 243.5332

EPHEMERIS_TYPE = 0
CLASSIFICATION_TYPE = U
NORAD_CAT_ID   = 65941
ELEMENT_SET_NO = 999
REV_AT_EPOCH   = 680
BSTAR          = .91123891E-3
MEAN_MOTION_DOT = .65728E-3
MEAN_MOTION_DDOT = 0

CCSDS_OMM_VERS = 2.0
CREATION_DATE  = 
ORIGINATOR     = 

OBJECT_NAME    = BOTAN
OBJECT_ID      = 1998-067XP
CENTER_NAME    = EARTH
REF_FRAME      = TEME
TIME_SYSTEM    = UTC
MEAN_ELEMENT_THEORY = SGP/SGP4

EPOCH          = 2025-11-23T02:55:38.193312
MEAN_MOTION    = 15.58437580
ECCENTRICITY   = .00046938
INCLINATION    = 51.6299
RA_OF_ASC_NODE = 238.0444
ARG_OF_PERICENTER = 122.4303
MEAN_ANOMALY   = 237.7144

EPHEMERIS_TYPE = 0
CLASSIFICATION_TYPE = U
NORAD_CAT_ID   = 65942
ELEMENT_SET_NO = 999
REV_AT_EPOCH   = 680
BSTAR          = .10128064E-2
MEAN_MOTION_DOT = .78973E-3
MEAN_MOTION_DDOT = 0

CCSDS_OMM_VERS = 2.0
CREATION_DATE  = 
ORIGINATOR     = 

OBJECT_NAME    = E-KAGAKU-1
OBJECT_ID      = 1998-067XQ
CENTER_NAME    = EARTH
REF_FRAME      = TEME
TIME_SYSTEM    = UTC
MEAN_ELEMENT_THEORY = SGP/SGP4

EPOCH          = 2025-11-23T00:26:46.640832
MEAN_MOTION    = 15.56396401
ECCENTRICITY   = .0004016
INCLINATION    = 51.6318
RA_OF_ASC_NODE = 238.8550
ARG_OF_PERICENTER = 102.8578
MEAN_ANOMALY   = 257.2863

EPHEMERIS_TYPE = 0
CLASSIFICATION_TYPE = U
NORAD_CAT_ID   = 65943
ELEMENT_SET_NO = 999
REV_AT_EPOCH   = 678
BSTAR          = .77066397E-3
MEAN_MOTION_DOT = .55364E-3
MEAN_MOTION_DDOT = 0

CCSDS_OMM_VERS = 2.0
CREATION_DATE  = 
ORIGINATOR     = 

OBJECT_NAME    = HRC MONOBLOCK CAMERA
OBJECT_ID      = 1998-067XR
CENTER_NAME    = EARTH
REF_FRAME      = TEME
TIME_SYSTEM    = UTC
MEAN_ELEMENT_THEORY = SGP/SGP4

EPOCH          = 2025-11-24T09:06:19.219104
MEAN_MOTION    = 15.52530108
ECCENTRICITY   = .0004708
INCLINATION    = 51.6305
RA_OF_ASC_NODE = 232.9365
ARG_OF_PERICENTER = 110.0504
MEAN_ANOMALY   = 250.0993

EPHEMERIS_TYPE = 0
CLASSIFICATION_TYPE = U
NORAD_CAT_ID   = 66052
ELEMENT_SET_NO = 999
REV_AT_EPOCH   = 598
BSTAR          = .57106E-3
MEAN_MOTION_DOT = .35373E-3
MEAN_MOTION_DDOT = 0

CCSDS_OMM_VERS = 2.0
CREATION_DATE  = 
ORIGINATOR     = 

OBJECT_NAME    = HTV-X1
OBJECT_ID      = 2025-241A
CENTER_NAME    = EARTH
REF_FRAME      = TEME
TIME_SYSTEM    = UTC
MEAN_ELEMENT_THEORY = SGP/SGP4

EPOCH          = 2025-11-23T04:33:29.811168
MEAN_MOTION    = 15.49010020
ECCENTRICITY   = .00039038
INCLINATION    = 51.6318
RA_OF_ASC_NODE = 239.2442
ARG_OF_PERICENTER = 158.2569
MEAN_ANOMALY   = 201.8586

EPHEMERIS_TYPE = 0
CLASSIFICATION_TYPE = U
NORAD_CAT_ID   = 66174
ELEMENT_SET_NO = 999
REV_AT_EPOCH   = 145
BSTAR          = .2556993E-3
MEAN_MOTION_DOT = .13668E-3
MEAN_MOTION_DDOT = 0

